[{"OBJECT_NAME":"TEMPSAT 1","OBJECT_ID":"1965-065E","EPOCH":"2026-03-09T23:04:19.834752","MEAN_MOTION":13.33589233,"ECCENTRICITY":0.00702466,"INCLINATION":89.9938,"RA_OF_ASC_NODE":212.5862,"ARG_OF_PERICENTER":165.9273,"MEAN_ANOMALY":317.9391,"EPHEMERIS_TYPE":0,"CLASSIFICATION_TYPE":"U","NORAD_CAT_ID":1512,"ELEMENT_SET_NO":999,"REV_AT_EPOCH":94682,"BSTAR":8.3668831e-5,"MEAN_MOTION_DOT":5.1e-7,"MEAN_MOTION_DDOT":0},{"OBJECT_NAME":"TRANSIT 5B-1","OBJECT_ID":"1963-038B","EPOCH":"2026-03-09T17:40:53.352768","MEAN_MOTION":13.44667877,"ECCENTRICITY":0.00404834,"INCLINATION":89.973,"RA_OF_ASC_NODE":333.2522,"ARG_OF_PERICENTER":321.4947,"MEAN_ANOMALY":38.3314,"EPHEMERIS_TYPE":0,"CLASSIFICATION_TYPE":"U","NORAD_CAT_ID":670,"ELEMENT_SET_NO":999,"REV_AT_EPOCH":6082,"BSTAR":0.00016164744,"MEAN_MOTION_DOT":1.04e-6,"MEAN_MOTION_DDOT":0}]
